TIANZHOU-10             
1 69049U 26102A   26157.86582920  .00024497  00000+0  29302-3 0  9994
2 69049  41.4717  24.7959 0008946 356.7264   3.3515 15.60367779  4204
QIANFAN-127             
1 69073U 26104A   26157.78004485  .00000103  00000+0  40682-4 0  9992
2 69073  88.9859 342.7902 0005139 133.8260 226.3357 14.21401881  3610
QIANFAN-128             
1 69074U 26104B   26157.83834455  .00000101  00000+0  42961-4 0  9997
2 69074  88.9860 342.7985 0004073 128.7897 231.3656 14.17438164  3616
QIANFAN-129             
1 69075U 26104C   26157.59572619  .00000119  00000+0  44766-4 0  9996
2 69075  88.9860 342.8037 0005018 139.4901 220.6666 14.24835869  3591
QIANFAN-130             
1 69076U 26104D   26157.68351748  .00000100  00000+0  41719-4 0  9990
2 69076  88.9866 342.8147 0005034 122.6285 237.5390 14.18122931  3590
QIANFAN-131             
1 69077U 26104E   26157.44381736  .00000110  00000+0  44430-4 0  9999
2 69077  88.9862 342.8344 0004252 140.1028 220.0476 14.20505824  3565
QIANFAN-132             
1 69078U 26104F   26157.83568738  .00000106  00000+0  45059-4 0  9995
2 69078  88.9866 342.7995 0004865 130.2721 229.8894 14.17870894  3616
QIANFAN-133             
1 69079U 26104G   26157.60782089  .00000099  00000+0  40792-4 0  9998
2 69079  88.9864 342.8210 0004245 139.3315 220.8191 14.18423976  3580
QIANFAN-134             
1 69080U 26104H   26157.60216075  .00000086  00000+0  34756-4 0  9996
2 69080  88.9864 342.8211 0005391 125.3281 234.8413 14.18663044  3587
QIANFAN-135             
1 69081U 26104J   26157.66768678  .00000098  00000+0  39789-4 0  9998
2 69081  88.9865 342.8125 0004541 146.7367 213.4109 14.19141750  3593
QIANFAN-136             
1 69082U 26104K   26157.66347672  .00000098  00000+0  39680-4 0  9996
2 69082  88.9865 342.8116 0005147 139.4310 220.7264 14.19293228  3595
QIANFAN-137             
1 69083U 26104L   26158.79676666  .00000126  00000+0  47585-4 0  9995
2 69083  88.9863 342.6635 0005541 131.3553 228.8117 14.24907758  3767
QIANFAN-138             
1 69084U 26104M   26157.86261714  .00000110  00000+0  45033-4 0  9996
2 69084  88.9860 342.7888 0004819 120.3727 239.7940 14.19965003  3625
QIANFAN-139             
1 69085U 26104N   26157.64631142  .00000088  00000+0  34092-4 0  9996
2 69085  88.9861 342.8086 0004172 131.6735 228.4813 14.20485543  3592
QIANFAN-140             
1 69086U 26104P   26157.36001452  .00000130  00000+0  53008-4 0  9997
2 69086  88.9863 342.8405 0004436 138.9972 221.1553 14.21392259  3555
QIANFAN-141             
1 69087U 26104Q   26157.63745818  .00000091  00000+0  35204-4 0  9993
2 69087  88.9864 342.8074 0003867 132.4936 227.6582 14.21094877  3597
QIANFAN-142             
1 69088U 26104R   26157.63224649  .00000102  00000+0  39987-4 0  9993
2 69088  88.9876 342.8063 0003651 117.4263 242.7300 14.21405918  3594
QIANFAN-143             
1 69089U 26104S   26157.40811800  .00000130  00000+0  51147-4 0  9993
2 69089  88.9863 342.8289 0004611 129.0377 231.1226 14.23171036  3562
QIANFAN-144             
1 69090U 26104T   26157.41399076  .00000134  00000+0  53482-4 0  9990
2 69090  88.9863 342.8299 0003963 120.6673 239.4909 14.22581820  3564
ZHUQUE-2E R/B           
1 69095U 26105A   26158.16672046  .00187362 -72251-6  46037-3 0  9991
2 69095  88.9719 195.6329 0458929 336.7240  21.3785 15.14524366  3635
2026-106A               
1 69097U 26106A   26155.63137572  .00009052  00000+0  54389-3 0  9996
2 69097  97.5095 237.9435 0013466 203.5034 156.5582 15.11037132  3085
2026-106B               
1 69098U 26106B   26155.63675397  .00006796  00000+0  42602-3 0  9996
2 69098  97.5082 237.9319 0014266 199.5733 160.4950 15.09575067  3086
2026-106C               
1 69099U 26106C   26155.63084001  .00008876  00000+0  53278-3 0  9995
2 69099  97.5097 237.9445 0013554 204.3760 155.6830 15.11076088  3082
2026-106D               
1 69100U 26106D   26155.62912235  .00008260  00000+0  49447-3 0  9996
2 69100  97.5062 237.9411 0013122 207.0214 153.0334 15.11202473  3085
2026-106E               
1 69101U 26106E   26155.62529263  .00009128  00000+0  54175-3 0  9990
2 69101  97.5073 237.9468 0015124 208.9127 151.1267 15.11460406  3083
DRAGON CRS-34           
1 69103U 26107A   26158.77231137  .00008050  00000+0  15059-3 0  9993
2 69103  51.6339 346.6979 0006971 145.1134 215.0313 15.49658440570311
QIANFAN-145             
1 69104U 26108A   26158.73153755  .00000290  00000+0  13947-3 0  9992
2 69104  89.0119  23.2734 0015742 143.8478 216.3777 14.16077191  3008
QIANFAN-146             
1 69105U 26108B   26157.67590889 -.02099076  00000+0 -10762+1 0  9991
2 69105  89.0117  23.3746 0018711 145.5638 214.6768 14.19641486  2868
